[{"OBJECT_NAME":"STARLINK-32083","OBJECT_ID":"2024-136Q","EPOCH":"2026-03-09T10:03:14.631840","MEAN_MOTION":15.30191097,"ECCENTRICITY":0.00013167,"INCLINATION":53.1608,"RA_OF_ASC_NODE":76.8469,"ARG_OF_PERICENTER":87.1996,"MEAN_ANOMALY":272.9155,"EPHEMERIS_TYPE":0,"CLASSIFICATION_TYPE":"U","NORAD_CAT_ID":60343,"ELEMENT_SET_NO":999,"REV_AT_EPOCH":8962,"BSTAR":-2.142578e-6,"MEAN_MOTION_DOT":-4.23e-6,"MEAN_MOTION_DDOT":0},{"OBJECT_NAME":"OBJECT A","OBJECT_ID":"2025-013A","EPOCH":"2026-03-09T23:29:31.895232","MEAN_MOTION":15.29260221,"ECCENTRICITY":0.0010321,"INCLINATION":97.6364,"RA_OF_ASC_NODE":244.5149,"ARG_OF_PERICENTER":282.3775,"MEAN_ANOMALY":77.6309,"EPHEMERIS_TYPE":0,"CLASSIFICATION_TYPE":"U","NORAD_CAT_ID":62729,"ELEMENT_SET_NO":999,"REV_AT_EPOCH":6276,"BSTAR":0.0013206527,"MEAN_MOTION_DOT":0.00037616,"MEAN_MOTION_DDOT":0}]
